MEAN_MOTION;ECCENTRICITY;INCLINATION;RA_OF_ASC_NODE;ARG_OF_PERICENTER;MEAN_ANOMALY;BSTAR;MEAN_MOTION_DOT;MEAN_MOTION_DDOT;TYPE
1.00272301;0.0004813;8.3943;45.7588;333.0227;182.8608;0;1.0E-7;0;Intelsat
1.00272406;0.000483;8.3952;45.7552;333.6797;35.8342;0;8.0E-8;0;Intelsat
1.00272495;0.0004878;8.3958;45.7525;334.2353;186.6105;0;7.0E-8;0;Intelsat
1.00272608;0.0004889;8.3967;45.7492;334.7855;27.3215;0;5.0E-8;0;Intelsat
1.00272741;0.0004947;8.3975;45.7457;335.6315;230.5366;0;4.0E-8;0;Intelsat
1.00272837;0.0004955;8.3982;45.7431;336.0265;26.8232;0;3.0E-8;0;Intelsat
1.00272976;0.0005012;8.399;45.7396;336.9777;232.1914;0;2.0E-8;0;Intelsat
1.00273093;0.0005024;8.3998;45.7368;337.3646;40.6026;0;1.0E-8;0;Intelsat
1.00273348;0.000508;8.4012;45.7311;338.5798;16.2823;0;0;0;Intelsat
1.00273473;0.0005127;8.4019;45.7283;339.3107;180.6213;0;-1.0E-8;0;Intelsat
1.00273719;0.0005173;8.4031;45.7232;340.3558;119.6714;0;-1.0E-8;0;Intelsat
1.00270247;0.0005183;8.4037;45.7216;338.9985;205.0681;0;0;0;Intelsat
1.00270718;0.0005222;8.4051;45.7159;339.6963;189.4152;0;0;0;Intelsat
1.00271068;0.0005262;8.4064;45.7099;340.9682;181.762;0;0;0;Intelsat
1.00271105;0.0005265;8.4066;45.7093;341.1506;222.6927;0;0;0;Intelsat
1.00271263;0.0005288;8.4072;45.7065;341.7004;23.2084;0;0;0;Intelsat
1.00271446;0.0005303;8.408;45.7031;342.4449;223.3889;0;1.0E-8;0;Intelsat
1.00271745;0.0005342;8.4094;45.6976;343.7272;181.4191;0;1.0E-8;0;Intelsat
1.00271953;0.0005363;8.4103;45.6939;344.3157;27.3798;0;2.0E-8;0;Intelsat
1.00272096;0.0005365;8.4109;45.6911;344.8148;184.5878;0;2.0E-8;0;Intelsat
1.002723;0.0005391;8.4117;45.6875;345.5164;29.0004;0;3.0E-8;0;Intelsat
1.00272439;0.0005392;8.4124;45.6847;346.0157;187.6436;0;4.0E-8;0;Intelsat
1.00272636;0.0005416;8.4132;45.681;346.7013;30.6264;0;5.0E-8;0;Intelsat
1.00272636;0.0005416;8.4132;45.681;346.7013;30.6264;0;4.0E-8;0;Intelsat
1.0027277;0.0005414;8.4138;45.6781;347.1293;185.6557;0;5.0E-8;0;Intelsat
1.00272959;0.0005433;8.4146;45.6743;347.7552;32.3306;0;6.0E-8;0;Intelsat
1.00273087;0.000543;8.4152;45.6715;348.1381;187.4592;0;7.0E-8;0;Intelsat
1.0027326;0.0005451;8.4161;45.6676;348.7867;34.1193;0;8.0E-8;0;Intelsat
1.00273381;0.0005448;8.4167;45.6648;349.1591;189.257;0;8.0E-8;0;Intelsat
1.00273591;0.0005459;8.4178;45.6598;349.8884;92.4208;0;1.0E-7;0;Intelsat
1.00273652;0.0005458;8.4181;45.6582;350.0081;183.7414;0;1.0E-7;0;Intelsat
1.00273908;0.000547;8.4196;45.6515;350.7951;193.2158;0;1.2E-7;0;Intelsat
1.00273918;0.0005473;8.4197;45.6511;350.8271;212.4892;0;1.3E-7;0;Intelsat
1.0027413;0.0005485;8.421;45.6451;351.5333;187.398;0;1.4E-7;0;Intelsat
1.00274234;0.0005505;8.4218;45.6417;351.8688;16.3619;0;1.6E-7;0;Intelsat
1.0027433;0.00055;8.4224;45.6389;352.159;171.5982;0;1.6E-7;0;Intelsat
1.0027443;0.0005525;8.4232;45.6352;352.4858;18.5866;0;1.7E-7;0;Intelsat
1.00274519;0.0005525;8.4238;45.6325;352.7539;173.8211;0;1.8E-7;0;Intelsat
1.00274599;0.0005555;8.4246;45.6291;353.0946;4.5745;0;1.8E-7;0;Intelsat
1.00271035;0.0005433;8.4247;45.6278;351.0753;81.7741;0;2.0E-7;0;Intelsat
1.00270299;0.0005495;8.4254;45.626;350.7556;187.226;0;2.0E-7;0;Intelsat
1.00270472;0.0005531;8.4261;45.6226;350.8778;25.7835;0;2.0E-7;0;Intelsat
1.00270562;0.0005529;8.4267;45.62;351.1702;176.9183;0;2.1E-7;0;Intelsat
1.00270594;0.0005531;8.4267;45.6197;351.2934;194.9933;0;2.1E-7;0;Intelsat
1.00270758;0.0005573;8.4281;45.6137;351.8483;182.5141;0;2.1E-7;0;Intelsat
1.00270781;0.0005579;8.4283;45.613;351.9322;223.5836;0;2.1E-7;0;Intelsat
1.00270916;0.0005624;8.4296;45.6076;352.5499;185.2266;0;2.0E-7;0;Intelsat
1.00271042;0.0005672;8.4309;45.6021;353.1858;142.1387;0;1.9E-7;0;Intelsat
1.00271076;0.000568;8.4311;45.6012;353.3372;201.7392;0;1.8E-7;0;Intelsat
1.00271216;0.0005732;8.4324;45.5957;354.0384;163.4535;0;1.7E-7;0;Intelsat
1.00271231;0.0005735;8.4325;45.5953;354.1067;188.0694;0;1.6E-7;0;Intelsat
1.00271388;0.0005798;8.434;45.5894;355.0626;182.2482;0;1.4E-7;0;Intelsat
1.00271402;0.00058;8.434;45.589;355.1306;204.9925;0;1.4E-7;0;Intelsat
1.00271576;0.000586;8.4355;45.5833;356.046;192.925;0;1.1E-7;0;Intelsat
1.00271746;0.0005914;8.4368;45.5781;356.8407;147.9242;0;9.0E-8;0;Intelsat
1.00271761;0.0005919;8.4369;45.5778;356.927;168.9738;0;8.0E-8;0;Intelsat
1.00272003;0.0005988;8.4385;45.5715;358.0529;201.7521;0;6.0E-8;0;Intelsat
1.00272003;0.0005988;8.4385;45.5715;358.0529;201.7521;0;6.0E-8;0;Intelsat
1.00272236;0.0006049;8.44;45.5659;359.0483;187.989;0;4.0E-8;0;Intelsat
1.00272492;0.0006104;8.4414;45.5604;359.9873;174.3197;0;3.0E-8;0;Intelsat
1.00272795;0.0006163;8.443;45.5543;1.1219;195.6485;0;2.0E-8;0;Intelsat
1.00272957;0.0006174;8.4438;45.5513;1.4917;22.9226;0;2.0E-8;0;Intelsat
1.00273381;0.0006253;8.4458;45.5432;3.0167;153.834;0;3.0E-8;0;Intelsat
1.00273404;0.0006256;8.4459;45.5429;3.1253;179.6117;0;2.0E-8;0;Intelsat
1.00273758;0.0006302;8.4474;45.5366;4.3197;205.6971;0;3.0E-8;0;Intelsat
1.00273758;0.0006302;8.4474;45.5366;4.3197;205.6971;0;3.0E-8;0;Intelsat
1.00274073;0.0006338;8.4488;45.531;5.3264;183.0499;0;3.0E-8;0;Intelsat
1.00274412;0.0006371;8.4502;45.525;6.3827;182.8318;0;4.0E-8;0;Intelsat
1.00274756;0.0006399;8.4517;45.5188;7.4387;189.8244;0;5.0E-8;0;Intelsat
1.00274756;0.0006399;8.4517;45.5188;7.4387;189.8244;0;5.0E-8;0;Intelsat
1.00274854;0.0006255;8.4537;45.5095;9.969;351.2328;0;7.0E-8;0;Intelsat
1.0027136;0.0006416;8.4549;45.5061;7.1871;192.8049;0;9.0E-8;0;Intelsat
1.0027136;0.0006416;8.4549;45.5061;7.1871;192.8049;0;9.0E-8;0;Intelsat
1.00271483;0.000644;8.4562;45.4999;8.3937;192.1873;0;1.1E-7;0;Intelsat
1.00271681;0.0006443;8.457;45.497;8.6008;15.2177;0;1.2E-7;0;Intelsat
1.00271808;0.0006444;8.4575;45.4936;9.0914;195.3973;0;1.3E-7;0;Intelsat
1.00272052;0.0006445;8.4588;45.4877;9.905;168.237;0;1.5E-7;0;Intelsat
1.00272051;0.0006447;8.4588;45.4875;9.906;177.7563;0;1.5E-7;0;Intelsat
1.00272297;0.0006445;8.4602;45.4813;10.6134;169.0207;0;1.7E-7;0;Intelsat
1.00272305;0.0006446;8.4602;45.481;10.6049;190.6924;0;1.7E-7;0;Intelsat
1.00272519;0.0006444;8.4616;45.4749;11.3016;188.4863;0;1.9E-7;0;Intelsat
1.0027271;0.0006443;8.463;45.4689;11.8472;178.6497;0;2.1E-7;0;Intelsat
1.00272784;0.0006459;8.4636;45.4661;12.1247;347.9844;0;2.2E-7;0;Intelsat
1.00272883;0.000645;8.4643;45.4631;12.4565;170.9064;0;2.2E-7;0;Intelsat
1.00273041;0.0006462;8.4656;45.4573;12.9822;157.2065;0;2.3E-7;0;Intelsat
1.00273051;0.0006464;8.4657;45.4569;13.0021;183.1042;0;2.3E-7;0;Intelsat
1.00273123;0.0006482;8.4664;45.454;13.1766;4.3376;0;2.3E-7;0;Intelsat
1.00273203;0.000648;8.4671;45.4513;13.3652;163.462;0;2.4E-7;0;Intelsat
1.00273361;0.0006508;8.4685;45.4452;13.9136;181.3139;0;2.3E-7;0;Intelsat
1.00273363;0.0006508;8.4686;45.4451;13.9121;187.8121;0;2.3E-7;0;Intelsat
1.002735;0.000654;8.4699;45.4396;14.4405;164.1866;0;2.2E-7;0;Intelsat
1.00273654;0.000658;8.4713;45.4336;15.0309;168.0428;0;2.0E-7;0;Intelsat
1.00260703;0.0005738;8.4725;45.4279;355.4978;201.2958;0;2.0E-7;0;Intelsat
1.00273222;0.000653;8.4753;45.4168;2.388;161.5502;0;1.3E-7;0;Intelsat
1.00273248;0.0006533;8.4754;45.4164;2.7333;187.091;0;1.2E-7;0;Intelsat
1.00273573;0.0006579;8.4769;45.4112;3.5719;163.1775;0;1.0E-7;0;Intelsat
1.00273547;0.0006573;8.477;45.4109;3.9369;188.6986;0;9.0E-8;0;Intelsat
1.00273867;0.0006608;8.4773;45.4091;2.3616;273.6681;0;9.0E-8;0;Intelsat
1.0027407;0.0006647;8.4784;45.4049;2.7061;176.2994;0;8.0E-8;0;Intelsat
1.0027407;0.0006646;8.4785;45.4048;2.8027;192.6329;0;7.0E-8;0;Intelsat
1.00274309;0.0006671;8.4798;45.3994;3.2682;169.0915;0;6.0E-8;0;Intelsat
1.00259022;0.0005651;8.4798;45.3992;0.5451;199.45;0;9.0E-8;0;Intelsat
1.00271157;0.0006571;8.4811;45.3939;349.3598;211.6611;0;6.0E-8;0;Intelsat
1.00271157;0.0006571;8.4811;45.3939;349.3598;211.6611;0;6.0E-8;0;Intelsat
1.00271667;0.0006596;8.4827;45.3884;350.2011;189.9909;0;5.0E-8;0;Intelsat
1.00271868;0.0006559;8.484;45.3833;351.4833;148.2969;0;5.0E-8;0;Intelsat
1.00271905;0.0006557;8.4841;45.3827;351.6368;189.0946;0;5.0E-8;0;Intelsat
1.00272228;0.0006528;8.4855;45.3769;352.876;190.6575;0;5.0E-8;0;Intelsat
1.0027256;0.0006494;8.4869;45.3711;354.1058;192.228;0;6.0E-8;0;Intelsat
1.00272628;0.0006518;8.487;45.3707;353.5469;210.7742;0;6.0E-8;0;Intelsat
1.00272938;0.0006483;8.4883;45.365;354.6125;194.5379;0;6.0E-8;0;Intelsat
1.00272986;0.0006492;8.4883;45.3647;354.3328;214.6452;0;6.0E-8;0;Intelsat
1.00273304;0.0006457;8.4896;45.359;355.2732;196.6841;0;7.0E-8;0;Intelsat
1.00273304;0.0006457;8.4896;45.359;355.2732;196.6841;0;7.0E-8;0;Intelsat
1.00273634;0.0006414;8.4909;45.3528;356.2426;198.5364;0;8.0E-8;0;Intelsat
1.00273634;0.0006414;8.4909;45.3528;356.2426;198.5364;0;8.0E-8;0;Intelsat
1.00273944;0.0006357;8.4923;45.3466;357.3488;200.2287;0;9.0E-8;0;Intelsat
1.00273944;0.0006357;8.4923;45.3466;357.3488;200.2287;0;9.0E-8;0;Intelsat
1.00274251;0.0006305;8.4936;45.3403;358.2459;202.1484;0;1.1E-7;0;Intelsat
1.00274251;0.0006305;8.4936;45.3403;358.2459;202.1484;0;1.1E-7;0;Intelsat
1.00274522;0.0006252;8.4949;45.3344;359.0878;178.219;0;1.2E-7;0;Intelsat
1.00271536;0.0006104;8.4963;45.3289;359.468;180.6274;0;1.5E-7;0;Intelsat
1.00271542;0.0006112;8.4963;45.3288;358.9323;196.9538;0;1.5E-7;0;Intelsat
1.0027203;0.0006146;8.4977;45.3228;358.213;184.6802;0;1.7E-7;0;Intelsat
1.00272078;0.0006064;8.4991;45.3169;358.7804;186.9023;0;1.9E-7;0;Intelsat
1.00272297;0.0006017;8.5005;45.3107;359.1304;189.3828;0;2.1E-7;0;Intelsat
1.00272465;0.0005971;8.5018;45.3048;359.54;191.7169;0;2.3E-7;0;Intelsat
1.00272465;0.0005971;8.5018;45.3048;359.54;191.7169;0;2.3E-7;0;Intelsat
1.00272611;0.0005925;8.5032;45.2988;0.0748;194.0067;0;2.4E-7;0;Intelsat
1.00272888;0.000585;8.5059;45.2869;1.3964;198.2678;0;2.4E-7;0;Intelsat
1.00273029;0.0005806;8.5073;45.2806;2.3837;214.7241;0;2.3E-7;0;Intelsat
1.00273029;0.0005806;8.5073;45.2806;2.3837;214.7241;0;2.3E-7;0;Intelsat
1.00273151;0.0005787;8.5084;45.2755;2.959;163.0029;0;2.2E-7;0;Intelsat
1.00273314;0.0005771;8.5098;45.2694;3.6796;175.5996;0;1.9E-7;0;Intelsat
1.00270826;0.000576;8.5119;45.2635;2.3241;182.6444;0;1.7E-7;0;Intelsat
1.00271023;0.0005775;8.5132;45.2575;2.6724;185.0929;0;1.4E-7;0;Intelsat
